<?xml version="1.0" encoding="UTF-8"?>
<ndm xmlns:xsi="http://www.w3.org/2001/XMLSchema-instance" xsi:noNamespaceSchemaLocation="https://sanaregistry.org/r/ndmxml_unqualified/ndmxml-2.0.0-master-2.0.xsd">
<omm id="CCSDS_OMM_VERS" version="2.0">
<header><CREATION_DATE/><ORIGINATOR/></header><body><segment><metadata><OBJECT_NAME>KUIPER-00112</OBJECT_NAME><OBJECT_ID>2025-171U</OBJECT_ID><CENTER_NAME>EARTH</CENTER_NAME><REF_FRAME>TEME</REF_FRAME><TIME_SYSTEM>UTC</TIME_SYSTEM><MEAN_ELEMENT_THEORY>SGP4</MEAN_ELEMENT_THEORY></metadata><data><meanElements><EPOCH>2025-11-01T14:00:01.999872</EPOCH><MEAN_MOTION>15.28573569</MEAN_MOTION><ECCENTRICITY>.00075233</ECCENTRICITY><INCLINATION>51.8816</INCLINATION><RA_OF_ASC_NODE>8.9861</RA_OF_ASC_NODE><ARG_OF_PERICENTER>85.9763</ARG_OF_PERICENTER><MEAN_ANOMALY>249.4659</MEAN_ANOMALY></meanElements><tleParameters><EPHEMERIS_TYPE>0</EPHEMERIS_TYPE><CLASSIFICATION_TYPE>U</CLASSIFICATION_TYPE><NORAD_CAT_ID>65150</NORAD_CAT_ID><ELEMENT_SET_NO>999</ELEMENT_SET_NO><REV_AT_EPOCH>555</REV_AT_EPOCH><BSTAR>.20003946E-2</BSTAR><MEAN_MOTION_DOT>.56518E-3</MEAN_MOTION_DOT><MEAN_MOTION_DDOT>0</MEAN_MOTION_DDOT></tleParameters></data></segment></body></omm>
<omm id="CCSDS_OMM_VERS" version="2.0">
<header><CREATION_DATE/><ORIGINATOR/></header><body><segment><metadata><OBJECT_NAME>KUIPER-00114</OBJECT_NAME><OBJECT_ID>2025-171V</OBJECT_ID><CENTER_NAME>EARTH</CENTER_NAME><REF_FRAME>TEME</REF_FRAME><TIME_SYSTEM>UTC</TIME_SYSTEM><MEAN_ELEMENT_THEORY>SGP4</MEAN_ELEMENT_THEORY></metadata><data><meanElements><EPOCH>2025-11-01T14:55:31.256256</EPOCH><MEAN_MOTION>14.79951755</MEAN_MOTION><ECCENTRICITY>.00054712</ECCENTRICITY><INCLINATION>51.9011</INCLINATION><RA_OF_ASC_NODE>21.9208</RA_OF_ASC_NODE><ARG_OF_PERICENTER>54.1115</ARG_OF_PERICENTER><MEAN_ANOMALY>306.0354</MEAN_ANOMALY></meanElements><tleParameters><EPHEMERIS_TYPE>0</EPHEMERIS_TYPE><CLASSIFICATION_TYPE>U</CLASSIFICATION_TYPE><NORAD_CAT_ID>65151</NORAD_CAT_ID><ELEMENT_SET_NO>999</ELEMENT_SET_NO><REV_AT_EPOCH>1367</REV_AT_EPOCH><BSTAR>.5677538E-3</BSTAR><MEAN_MOTION_DOT>.4111E-4</MEAN_MOTION_DOT><MEAN_MOTION_DDOT>0</MEAN_MOTION_DDOT></tleParameters></data></segment></body></omm>
<omm id="CCSDS_OMM_VERS" version="2.0">
<header><CREATION_DATE/><ORIGINATOR/></header><body><segment><metadata><OBJECT_NAME>KUIPER-00115</OBJECT_NAME><OBJECT_ID>2025-171W</OBJECT_ID><CENTER_NAME>EARTH</CENTER_NAME><REF_FRAME>TEME</REF_FRAME><TIME_SYSTEM>UTC</TIME_SYSTEM><MEAN_ELEMENT_THEORY>SGP4</MEAN_ELEMENT_THEORY></metadata><data><meanElements><EPOCH>2025-11-01T14:00:01.999872</EPOCH><MEAN_MOTION>14.90064952</MEAN_MOTION><ECCENTRICITY>.00123438</ECCENTRICITY><INCLINATION>51.8972</INCLINATION><RA_OF_ASC_NODE>14.8687</RA_OF_ASC_NODE><ARG_OF_PERICENTER>67.5455</ARG_OF_PERICENTER><MEAN_ANOMALY>248.8617</MEAN_ANOMALY></meanElements><tleParameters><EPHEMERIS_TYPE>0</EPHEMERIS_TYPE><CLASSIFICATION_TYPE>U</CLASSIFICATION_TYPE><NORAD_CAT_ID>65152</NORAD_CAT_ID><ELEMENT_SET_NO>999</ELEMENT_SET_NO><REV_AT_EPOCH>530</REV_AT_EPOCH><BSTAR>.26285197E-2</BSTAR><MEAN_MOTION_DOT>.25531E-3</MEAN_MOTION_DOT><MEAN_MOTION_DDOT>0</MEAN_MOTION_DDOT></tleParameters></data></segment></body></omm>
<omm id="CCSDS_OMM_VERS" version="2.0">
<header><CREATION_DATE/><ORIGINATOR/></header><body><segment><metadata><OBJECT_NAME>KUIPER-00116</OBJECT_NAME><OBJECT_ID>2025-171X</OBJECT_ID><CENTER_NAME>EARTH</CENTER_NAME><REF_FRAME>TEME</REF_FRAME><TIME_SYSTEM>UTC</TIME_SYSTEM><MEAN_ELEMENT_THEORY>SGP4</MEAN_ELEMENT_THEORY></metadata><data><meanElements><EPOCH>2025-10-31T20:02:08.819520</EPOCH><MEAN_MOTION>14.83769773</MEAN_MOTION><ECCENTRICITY>.00095157</ECCENTRICITY><INCLINATION>51.8992</INCLINATION><RA_OF_ASC_NODE>22.8137</RA_OF_ASC_NODE><ARG_OF_PERICENTER>27.1341</ARG_OF_PERICENTER><MEAN_ANOMALY>333.0119</MEAN_ANOMALY></meanElements><tleParameters><EPHEMERIS_TYPE>0</EPHEMERIS_TYPE><CLASSIFICATION_TYPE>U</CLASSIFICATION_TYPE><NORAD_CAT_ID>65153</NORAD_CAT_ID><ELEMENT_SET_NO>999</ELEMENT_SET_NO><REV_AT_EPOCH>1359</REV_AT_EPOCH><BSTAR>-.1545395E-1</BSTAR><MEAN_MOTION_DOT>-.127143E-2</MEAN_MOTION_DOT><MEAN_MOTION_DDOT>0</MEAN_MOTION_DDOT></tleParameters></data></segment></body></omm>
<omm id="CCSDS_OMM_VERS" version="2.0">
<header><CREATION_DATE/><ORIGINATOR/></header><body><segment><metadata><OBJECT_NAME>KUIPER-00118</OBJECT_NAME><OBJECT_ID>2025-171Y</OBJECT_ID><CENTER_NAME>EARTH</CENTER_NAME><REF_FRAME>TEME</REF_FRAME><TIME_SYSTEM>UTC</TIME_SYSTEM><MEAN_ELEMENT_THEORY>SGP4</MEAN_ELEMENT_THEORY></metadata><data><meanElements><EPOCH>2025-11-01T14:06:58.014144</EPOCH><MEAN_MOTION>14.79933683</MEAN_MOTION><ECCENTRICITY>.00018749</ECCENTRICITY><INCLINATION>51.9007</INCLINATION><RA_OF_ASC_NODE>22.0467</RA_OF_ASC_NODE><ARG_OF_PERICENTER>78.3824</ARG_OF_PERICENTER><MEAN_ANOMALY>281.7348</MEAN_ANOMALY></meanElements><tleParameters><EPHEMERIS_TYPE>0</EPHEMERIS_TYPE><CLASSIFICATION_TYPE>U</CLASSIFICATION_TYPE><NORAD_CAT_ID>65154</NORAD_CAT_ID><ELEMENT_SET_NO>999</ELEMENT_SET_NO><REV_AT_EPOCH>1367</REV_AT_EPOCH><BSTAR>.48595778E-3</BSTAR><MEAN_MOTION_DOT>.3485E-4</MEAN_MOTION_DOT><MEAN_MOTION_DDOT>0</MEAN_MOTION_DDOT></tleParameters></data></segment></body></omm>
<omm id="CCSDS_OMM_VERS" version="2.0">
<header><CREATION_DATE/><ORIGINATOR/></header><body><segment><metadata><OBJECT_NAME>KUIPER-00119</OBJECT_NAME><OBJECT_ID>2025-171Z</OBJECT_ID><CENTER_NAME>EARTH</CENTER_NAME><REF_FRAME>TEME</REF_FRAME><TIME_SYSTEM>UTC</TIME_SYSTEM><MEAN_ELEMENT_THEORY>SGP4</MEAN_ELEMENT_THEORY></metadata><data><meanElements><EPOCH>2025-11-01T14:00:01.999872</EPOCH><MEAN_MOTION>15.05869643</MEAN_MOTION><ECCENTRICITY>.00074054</ECCENTRICITY><INCLINATION>51.8893</INCLINATION><RA_OF_ASC_NODE>11.6745</RA_OF_ASC_NODE><ARG_OF_PERICENTER>40.0687</ARG_OF_PERICENTER><MEAN_ANOMALY>333.5015</MEAN_ANOMALY></meanElements><tleParameters><EPHEMERIS_TYPE>0</EPHEMERIS_TYPE><CLASSIFICATION_TYPE>U</CLASSIFICATION_TYPE><NORAD_CAT_ID>65155</NORAD_CAT_ID><ELEMENT_SET_NO>999</ELEMENT_SET_NO><REV_AT_EPOCH>507</REV_AT_EPOCH><BSTAR>.28436667E-2</BSTAR><MEAN_MOTION_DOT>.41771E-3</MEAN_MOTION_DOT><MEAN_MOTION_DDOT>0</MEAN_MOTION_DDOT></tleParameters></data></segment></body></omm>
<omm id="CCSDS_OMM_VERS" version="2.0">
<header><CREATION_DATE/><ORIGINATOR/></header><body><segment><metadata><OBJECT_NAME>KUIPER-00120</OBJECT_NAME><OBJECT_ID>2025-217A</OBJECT_ID><CENTER_NAME>EARTH</CENTER_NAME><REF_FRAME>TEME</REF_FRAME><TIME_SYSTEM>UTC</TIME_SYSTEM><MEAN_ELEMENT_THEORY>SGP4</MEAN_ELEMENT_THEORY></metadata><data><meanElements><EPOCH>2025-11-01T03:57:19.776672</EPOCH><MEAN_MOTION>15.26067034</MEAN_MOTION><ECCENTRICITY>.00087827</ECCENTRICITY><INCLINATION>51.8707</INCLINATION><RA_OF_ASC_NODE>266.5388</RA_OF_ASC_NODE><ARG_OF_PERICENTER>239.3536</ARG_OF_PERICENTER><MEAN_ANOMALY>120.6580</MEAN_ANOMALY></meanElements><tleParameters><EPHEMERIS_TYPE>0</EPHEMERIS_TYPE><CLASSIFICATION_TYPE>U</CLASSIFICATION_TYPE><NORAD_CAT_ID>65762</NORAD_CAT_ID><ELEMENT_SET_NO>999</ELEMENT_SET_NO><REV_AT_EPOCH>563</REV_AT_EPOCH><BSTAR>-.85367313E-2</BSTAR><MEAN_MOTION_DOT>-.21728E-2</MEAN_MOTION_DOT><MEAN_MOTION_DDOT>0</MEAN_MOTION_DDOT></tleParameters></data></segment></body></omm>
<omm id="CCSDS_OMM_VERS" version="2.0">
<header><CREATION_DATE/><ORIGINATOR/></header><body><segment><metadata><OBJECT_NAME>KUIPER-00132</OBJECT_NAME><OBJECT_ID>2025-217B</OBJECT_ID><CENTER_NAME>EARTH</CENTER_NAME><REF_FRAME>TEME</REF_FRAME><TIME_SYSTEM>UTC</TIME_SYSTEM><MEAN_ELEMENT_THEORY>SGP4</MEAN_ELEMENT_THEORY></metadata><data><meanElements><EPOCH>2025-11-01T14:30:40.517568</EPOCH><MEAN_MOTION>15.36092080</MEAN_MOTION><ECCENTRICITY>.00052478</ECCENTRICITY><INCLINATION>51.8651</INCLINATION><RA_OF_ASC_NODE>263.5289</RA_OF_ASC_NODE><ARG_OF_PERICENTER>227.7075</ARG_OF_PERICENTER><MEAN_ANOMALY>132.3467</MEAN_ANOMALY></meanElements><tleParameters><EPHEMERIS_TYPE>0</EPHEMERIS_TYPE><CLASSIFICATION_TYPE>U</CLASSIFICATION_TYPE><NORAD_CAT_ID>65763</NORAD_CAT_ID><ELEMENT_SET_NO>999</ELEMENT_SET_NO><REV_AT_EPOCH>571</REV_AT_EPOCH><BSTAR>.99838508E-3</BSTAR><MEAN_MOTION_DOT>.35435E-3</MEAN_MOTION_DOT><MEAN_MOTION_DDOT>0</MEAN_MOTION_DDOT></tleParameters></data></segment></body></omm>

</ndm>
