65150,KUIPER-00112,2025,94.21,-1.0,+,51.88,Active,0,LEO,USA,USA,Unknown,Unknown,Unknown,1 65150U 25171U   25305.58335648  .00056518  00000+0  20004-2 0  9992,2 65150  51.8816   8.9861 0007523  85.9763 249.4659 15.28573569  5550,15.28573569,0.0007523,LEO
65151,KUIPER-00114,2025,97.3,-1.0,+,51.9,Active,0,LEO,USA,USA,Unknown,Unknown,Unknown,1 65151U 25171V   25305.62188954  .00004111  00000+0  56775-3 0  9991,2 65151  51.9011  21.9208 0005471  54.1115 306.0354 14.79951755 13674,14.79951755,0.0005471,LEO
65152,KUIPER-00115,2025,96.64,-1.0,+,51.9,Active,0,LEO,USA,USA,Unknown,Unknown,Unknown,1 65152U 25171W   25305.58335648  .00025531  00000+0  26285-2 0  9992,2 65152  51.8972  14.8687 0012343  67.5455 248.8617 14.90064952  5306,14.90064952,0.0012343,LEO
65153,KUIPER-00116,2025,97.05,-1.0,+,51.9,Active,0,LEO,USA,USA,Unknown,Unknown,Unknown,1 65153U 25171X   25304.83482430 -.00127143  00000+0 -15454-1 0  9991,2 65153  51.8992  22.8137 0009515  27.1341 333.0119 14.83769773 13590,14.83769773,0.0009515,LEO
65154,KUIPER-00118,2025,97.3,-1.0,+,51.9,Active,0,LEO,USA,USA,Unknown,Unknown,Unknown,1 65154U 25171Y   25305.58817146  .00003485  00000+0  48596-3 0  9996,2 65154  51.9007  22.0467 0001874  78.3824 281.7348 14.79933683 13671,14.79933683,0.0001874,LEO
65155,KUIPER-00119,2025,95.63,-1.0,+,51.89,Active,0,LEO,USA,USA,Unknown,Unknown,Unknown,1 65155U 25171Z   25305.58335648  .00041771  00000+0  28437-2 0  9990,2 65155  51.8893  11.6745 0007405  40.0687 333.5015 15.05869643  5072,15.05869643,0.0007405,LEO
65762,KUIPER-00120,2025,94.36,-1.0,+,51.87,Active,0,LEO,USA,USA,Unknown,Unknown,Unknown,1 65762U 25217A   25305.16481223 -.00217280  00000+0 -85367-2 0  9997,2 65762  51.8707 266.5388 0008782 239.3536 120.6580 15.26067034  5630,15.26067034,0.0008782,LEO
65763,KUIPER-00132,2025,93.74,-1.0,+,51.87,Active,0,LEO,USA,USA,Unknown,Unknown,Unknown,1 65763U 25217B   25305.60463562  .00035435  00000+0  99839-3 0  9991,2 65763  51.8651 263.5289 0005247 227.7075 132.3467 15.36092080  5711,15.3609208,0.0005247,LEO
